{"type": "FeatureCollection", "features": [{"type": "Feature", "properties": {"norad_id": 28890, "name": "BEIJING 1", "group": "dmc", "lat": 8.287147192025424, "lon": -50.015678368812196, "alt_km": 680.8072015832577, "timestamp": "2025-12-27T05:29:38.860788+00:00", "meta": {"OBJECT_NAME": "BEIJING 1", "OBJECT_ID": "2005-043A", "EPOCH": "2025-12-26T22:09:01.541664", "MEAN_MOTION": 14.63378708, "ECCENTRICITY": 0.0015868, "INCLINATION": 98.2664, "RA_OF_ASC_NODE": 128.4643, "ARG_OF_PERICENTER": 99.6233, "MEAN_ANOMALY": 260.6763, "EPHEMERIS_TYPE": 0, "CLASSIFICATION_TYPE": "U", "NORAD_CAT_ID": 28890, "ELEMENT_SET_NO": 999, "REV_AT_EPOCH": 7545, "BSTAR": 8.2898487e-05, "MEAN_MOTION_DOT": 3.8e-06, "MEAN_MOTION_DDOT": 0}, "tle": {"line1": "1 28890U 05043A   25360.92293451  .00000380  00000+0  82898-4 0  9999", "line2": "2 28890  98.2664 128.4643 0015868  99.6233 260.6763 14.63378708 75450"}}, "geometry": {"type": "Point", "coordinates": [-50.015678368812196, 8.287147192025424]}}, {"type": "Feature", "properties": {"norad_id": 33320, "name": "HUANJING 1A (HJ-1A)", "group": "dmc", "lat": 17.69673668814494, "lon": 171.3827020229885, "alt_km": 632.1830860839618, "timestamp": "2025-12-27T05:29:38.860812+00:00", "meta": {"OBJECT_NAME": "HUANJING 1A (HJ-1A)", "OBJECT_ID": "2008-041A", "EPOCH": "2025-12-26T23:54:33.859008", "MEAN_MOTION": 14.83439235, "ECCENTRICITY": 0.0019003, "INCLINATION": 97.6555, "RA_OF_ASC_NODE": 348.6999, "ARG_OF_PERICENTER": 348.6851, "MEAN_ANOMALY": 11.3933, "EPHEMERIS_TYPE": 0, "CLASSIFICATION_TYPE": "U", "NORAD_CAT_ID": 33320, "ELEMENT_SET_NO": 999, "REV_AT_EPOCH": 93287, "BSTAR": 0.00024177131, "MEAN_MOTION_DOT": 1.94e-05, "MEAN_MOTION_DDOT": 0}, "tle": {"line1": "1 33320U 08041A   25360.99622522  .00001940  00000+0  24177-3 0  9994", "line2": "2 33320  97.6555 348.6999 0019003 348.6851  11.3933 14.83439235932877"}}, "geometry": {"type": "Point", "coordinates": [171.3827020229885, 17.69673668814494]}}, {"type": "Feature", "properties": {"norad_id": 33321, "name": "HUANJING 1B (HJ-1B)", "group": "dmc", "lat": -7.256788811575573, "lon": -6.4385567364830525, "alt_km": 603.1651398425192, "timestamp": "2025-12-27T05:29:38.860827+00:00", "meta": {"OBJECT_NAME": "HUANJING 1B (HJ-1B)", "OBJECT_ID": "2008-041B", "EPOCH": "2025-12-26T23:02:56.150304", "MEAN_MOTION": 14.82860511, "ECCENTRICITY": 0.00376229, "INCLINATION": 97.6413, "RA_OF_ASC_NODE": 352.3252, "ARG_OF_PERICENTER": 30.6752, "MEAN_ANOMALY": 329.665, "EPHEMERIS_TYPE": 0, "CLASSIFICATION_TYPE": "U", "NORAD_CAT_ID": 33321, "ELEMENT_SET_NO": 999, "REV_AT_EPOCH": 93288, "BSTAR": 0.00021365759, "MEAN_MOTION_DOT": 1.7e-05, "MEAN_MOTION_DDOT": 0}, "tle": {"line1": "1 33321U 08041B   25360.96037211  .00001700  00000+0  21366-3 0  9998", "line2": "2 33321  97.6413 352.3252 0037622  30.6752 329.6650 14.82860511932886"}}, "geometry": {"type": "Point", "coordinates": [-6.4385567364830525, -7.256788811575573]}}, {"type": "Feature", "properties": {"norad_id": 33446, "name": "YAOGAN-4", "group": "dmc", "lat": -75.56514234872185, "lon": 78.4484514883163, "alt_km": 619.2598597215328, "timestamp": "2025-12-27T05:29:38.860839+00:00", "meta": {"OBJECT_NAME": "YAOGAN-4", "OBJECT_ID": "2008-061A", "EPOCH": "2025-12-26T18:36:57.311712", "MEAN_MOTION": 14.82723581, "ECCENTRICITY": 0.00129631, "INCLINATION": 97.9198, "RA_OF_ASC_NODE": 290.7385, "ARG_OF_PERICENTER": 273.4167, "MEAN_ANOMALY": 86.5564, "EPHEMERIS_TYPE": 0, "CLASSIFICATION_TYPE": "U", "NORAD_CAT_ID": 33446, "ELEMENT_SET_NO": 999, "REV_AT_EPOCH": 92011, "BSTAR": 0.00019776049, "MEAN_MOTION_DOT": 1.545e-05, "MEAN_MOTION_DDOT": 0}, "tle": {"line1": "1 33446U 08061A   25360.77566333  .00001545  00000+0  19776-3 0  9998", "line2": "2 33446  97.9198 290.7385 0012963 273.4167  86.5564 14.82723581920118"}}, "geometry": {"type": "Point", "coordinates": [78.4484514883163, -75.56514234872185]}}, {"type": "Feature", "properties": {"norad_id": 35681, "name": "DEIMOS-1", "group": "dmc", "lat": -15.663663773194985, "lon": 163.3373473741502, "alt_km": 649.5447202362584, "timestamp": "2025-12-27T05:29:38.860850+00:00", "meta": {"OBJECT_NAME": "DEIMOS-1", "OBJECT_ID": "2009-041A", "EPOCH": "2025-12-26T23:03:11.086272", "MEAN_MOTION": 14.74975897, "ECCENTRICITY": 0.00024101, "INCLINATION": 97.7159, "RA_OF_ASC_NODE": 160.9028, "ARG_OF_PERICENTER": 58.2641, "MEAN_ANOMALY": 301.8803, "EPHEMERIS_TYPE": 0, "CLASSIFICATION_TYPE": "U", "NORAD_CAT_ID": 35681, "ELEMENT_SET_NO": 999, "REV_AT_EPOCH": 88149, "BSTAR": 0.00019641637, "MEAN_MOTION_DOT": 1.273e-05, "MEAN_MOTION_DDOT": 0}, "tle": {"line1": "1 35681U 09041A   25360.96054498  .00001273  00000+0  19642-3 0  9995", "line2": "2 35681  97.7159 160.9028 0002410  58.2641 301.8803 14.74975897881496"}}, "geometry": {"type": "Point", "coordinates": [163.3373473741502, -15.663663773194985]}}, {"type": "Feature", "properties": {"norad_id": 35683, "name": "UK-DMC 2", "group": "dmc", "lat": 34.175619504793026, "lon": 130.34339330311067, "alt_km": 640.2686331567529, "timestamp": "2025-12-27T05:29:38.860861+00:00", "meta": {"OBJECT_NAME": "UK-DMC 2", "OBJECT_ID": "2009-041C", "EPOCH": "2025-12-26T22:49:42.809088", "MEAN_MOTION": 14.7565344, "ECCENTRICITY": 0.00015926, "INCLINATION": 97.8572, "RA_OF_ASC_NODE": 135.4536, "ARG_OF_PERICENTER": 91.0711, "MEAN_ANOMALY": 269.0681, "EPHEMERIS_TYPE": 0, "CLASSIFICATION_TYPE": "U", "NORAD_CAT_ID": 35683, "ELEMENT_SET_NO": 999, "REV_AT_EPOCH": 88116, "BSTAR": 0.00024146871, "MEAN_MOTION_DOT": 1.6e-05, "MEAN_MOTION_DDOT": 0}, "tle": {"line1": "1 35683U 09041C   25360.95118992  .00001600  00000+0  24147-3 0  9996", "line2": "2 35683  97.8572 135.4536 0001592  91.0711 269.0681 14.75653440881163"}}, "geometry": {"type": "Point", "coordinates": [130.34339330311067, 34.175619504793026]}}, {"type": "Feature", "properties": {"norad_id": 40715, "name": "DMC3-FM1", "group": "dmc", "lat": -53.984616149247465, "lon": 37.21276215090283, "alt_km": 616.584762494037, "timestamp": "2025-12-27T05:29:38.860872+00:00", "meta": {"OBJECT_NAME": "DMC3-FM1", "OBJECT_ID": "2015-032A", "EPOCH": "2025-12-26T21:58:26.879232", "MEAN_MOTION": 14.85464196, "ECCENTRICITY": 0.00040796, "INCLINATION": 97.6678, "RA_OF_ASC_NODE": 227.5912, "ARG_OF_PERICENTER": 261.1687, "MEAN_ANOMALY": 98.9067, "EPHEMERIS_TYPE": 0, "CLASSIFICATION_TYPE": "U", "NORAD_CAT_ID": 40715, "ELEMENT_SET_NO": 999, "REV_AT_EPOCH": 56433, "BSTAR": 0.00013208683, "MEAN_MOTION_DOT": 1.088e-05, "MEAN_MOTION_DDOT": 0}, "tle": {"line1": "1 40715U 15032A   25360.91558888  .00001088  00000+0  13209-3 0  9990", "line2": "2 40715  97.6678 227.5912 0004079 261.1687  98.9067 14.85464196564339"}}, "geometry": {"type": "Point", "coordinates": [37.21276215090283, -53.984616149247465]}}, {"type": "Feature", "properties": {"norad_id": 40716, "name": "DMC3-FM2", "group": "dmc", "lat": 64.35338157557868, "lon": 65.65647063281251, "alt_km": 608.653895042854, "timestamp": "2025-12-27T05:29:38.860883+00:00", "meta": {"OBJECT_NAME": "DMC3-FM2", "OBJECT_ID": "2015-032B", "EPOCH": "2025-12-26T22:30:48.867840", "MEAN_MOTION": 14.85469134, "ECCENTRICITY": 0.00045116, "INCLINATION": 97.6736, "RA_OF_ASC_NODE": 229.067, "ARG_OF_PERICENTER": 268.3837, "MEAN_ANOMALY": 91.6862, "EPHEMERIS_TYPE": 0, "CLASSIFICATION_TYPE": "U", "NORAD_CAT_ID": 40716, "ELEMENT_SET_NO": 999, "REV_AT_EPOCH": 56433, "BSTAR": 0.0002089546, "MEAN_MOTION_DOT": 1.751e-05, "MEAN_MOTION_DDOT": 0}, "tle": {"line1": "1 40716U 15032B   25360.93806560  .00001751  00000+0  20895-3 0  9992", "line2": "2 40716  97.6736 229.0670 0004511 268.3837  91.6862 14.85469134564330"}}, "geometry": {"type": "Point", "coordinates": [65.65647063281251, 64.35338157557868]}}, {"type": "Feature", "properties": {"norad_id": 40717, "name": "DMC3-FM3", "group": "dmc", "lat": -1.798743640227362, "lon": -128.76706622850605, "alt_km": 615.4029094905691, "timestamp": "2025-12-27T05:29:38.860893+00:00", "meta": {"OBJECT_NAME": "DMC3-FM3", "OBJECT_ID": "2015-032C", "EPOCH": "2025-12-26T23:02:08.232864", "MEAN_MOTION": 14.85452214, "ECCENTRICITY": 0.00038714, "INCLINATION": 97.6792, "RA_OF_ASC_NODE": 230.7306, "ARG_OF_PERICENTER": 269.7933, "MEAN_ANOMALY": 90.2839, "EPHEMERIS_TYPE": 0, "CLASSIFICATION_TYPE": "U", "NORAD_CAT_ID": 40717, "ELEMENT_SET_NO": 999, "REV_AT_EPOCH": 56434, "BSTAR": 0.00011181298, "MEAN_MOTION_DOT": 9.12e-06, "MEAN_MOTION_DDOT": 0}, "tle": {"line1": "1 40717U 15032C   25360.95981751  .00000912  00000+0  11181-3 0  9997", "line2": "2 40717  97.6792 230.7306 0003871 269.7933  90.2839 14.85452214564349"}}, "geometry": {"type": "Point", "coordinates": [-128.76706622850605, -1.798743640227362]}}]}